GLOBALSTAR M024         
1 25883U 99043A   24134.89645571 -.00000130  00000+0 -22991-2 0  9990
2 25883  52.0000 201.5548 0001861 174.7408 356.8950 11.10159495 70512
GLOBALSTAR M027         
1 25884U 99043B   24134.61161237 -.00000007  00000+0  21440-2 0  9993
2 25884  52.0214 268.8590 0021628  67.8554 292.4532 11.04368134 97098
GLOBALSTAR M054         
1 25885U 99043C   24135.36165146 -.00000063  00000+0  20228-3 0  9996
2 25885  52.0119 101.4120 0004445 216.6805 313.7284 11.39203269 73927
GLOBALSTAR M053         
1 25886U 99043D   24135.21200321 -.00000046  00000+0  65179-3 0  9991
2 25886  52.0017  26.7334 0003776 115.5733  61.8027 11.27654977 74575
GLOBALSTAR M058         
1 25907U 99049A   24134.63674405 -.00000052  00000+0  43824-3 0  9994
2 25907  51.9932  96.0572 0002153 235.1994 124.8638 11.93177239493840
GLOBALSTAR M050         
1 25908U 99049B   24135.21205542 -.00000026  00000+0  70540-3 0  9998
2 25908  51.9958 132.0054 0009228 317.0274 125.5017 12.07433266104722
GLOBALSTAR M033         
1 25909U 99049C   24135.44861612 -.00000054  00000+0  36572-3 0  9998
2 25909  51.9938  30.7321 0011745 165.6109 194.5075 12.20273405119787
GLOBALSTAR M055         
1 25910U 99049D   24135.47386108 -.00000037  00000+0  49262-3 0  9996
2 25910  52.0034  60.8100 0007560  25.9720 334.1510 12.29401222119464
